[{"OBJECT_NAME":"STARLINK-3607","OBJECT_ID":"2022-017AT","EPOCH":"2026-03-09T21:31:25.452768","MEAN_MOTION":15.08852055,"ECCENTRICITY":0.00015183,"INCLINATION":53.2199,"RA_OF_ASC_NODE":338.1512,"ARG_OF_PERICENTER":55.8956,"MEAN_ANOMALY":304.218,"EPHEMERIS_TYPE":0,"CLASSIFICATION_TYPE":"U","NORAD_CAT_ID":51809,"ELEMENT_SET_NO":999,"REV_AT_EPOCH":22409,"BSTAR":0.00015558195,"MEAN_MOTION_DOT":2.19e-5,"MEAN_MOTION_DDOT":0},{"OBJECT_NAME":"LEMUR-2-THERMORAPTOR","OBJECT_ID":"2025-061D","EPOCH":"2026-03-09T21:59:50.013312","MEAN_MOTION":15.13256334,"ECCENTRICITY":0.00176188,"INCLINATION":97.562,"RA_OF_ASC_NODE":45.6468,"ARG_OF_PERICENTER":235.5571,"MEAN_ANOMALY":124.3996,"EPHEMERIS_TYPE":0,"CLASSIFICATION_TYPE":"U","NORAD_CAT_ID":63354,"ELEMENT_SET_NO":999,"REV_AT_EPOCH":5259,"BSTAR":0.00030402789,"MEAN_MOTION_DOT":5.359e-5,"MEAN_MOTION_DDOT":0}]
